{"type": "FeatureCollection", "features": [{"type": "Feature", "properties": {"shapeName": "Sindhupalchok", "shapeISO": "", "shapeID": "79688334B45086844065391", "shapeGroup": "NPL", "shapeType": "ADM2"}, "geometry": {"type": "Polygon", "coordinates": [[[86.01515852133844, 27.909079051868048], [85.95514214312726, 27.926942321404], [85.90905659236961, 27.94065721727452], [85.91084357222599, 27.98327310121215], [85.90757367716441, 28.02001219145916], [85.86974303553069, 28.058993093553795], [85.878266973049, 28.084766295826967], [85.85902115639294, 28.109443481959943], [85.80189529993277, 28.146099891944118], [85.76252424410904, 28.189799754647538], [85.72857162652997, 28.177198837561207], [85.6874710899807, 28.16144560318702], [85.63564867435349, 28.150416959708707], [85.60705699665237, 28.14569005030546], [85.57400662827695, 28.137591502671], [85.52485592285234, 28.16302103107273], [85.48375538630307, 28.156719181184428], [85.45516370862538, 28.1488413461214], [85.45516370862538, 28.10629102748095], [85.42657203094768, 28.088950870536678], [85.39619337330294, 28.071607912336276], [85.39879294797882, 28.069676097311802], [85.39881813314837, 28.06965738152365], [85.43040890022569, 28.04591266219324], [85.44622880958394, 28.01798470816857], [85.44622880958394, 28.004456507039492], [85.44622880958394, 27.988140462726335], [85.44622880958394, 27.986429163851824], [85.44622880958394, 27.972300893314014], [85.44622880958394, 27.947818602595532], [85.44622880958394, 27.946971743203335], [85.44544941649252, 27.92631472009117], [85.44429419708109, 27.899318320949362], [85.4339160044126, 27.879252898081972], [85.4166300301855, 27.845823072502156], [85.41585015202662, 27.844314992536283], [85.41573098427398, 27.841891443761995], [85.41412568098525, 27.809238653910427], [85.41406317207611, 27.80796699008215], [85.4444418297208, 27.790578861343533], [85.51413404394782, 27.776350141723412], [85.54232728853925, 27.75727303253675], [85.54451270159251, 27.75579426114882], [85.59276115780187, 27.72099854384703], [85.63922263406602, 27.698850030681626], [85.65709243233596, 27.67353193972707], [85.68568411001365, 27.63870998226679], [85.71070182831863, 27.64504207216629], [85.72499766716913, 27.66720149942654], [85.75537632472663, 27.67036676522804], [85.80362478065831, 27.65612234728718], [85.82685551897924, 27.630794354966497], [85.84204484770612, 27.600214868315902], [85.90444144981012, 27.70418674337276], [85.96514263500615, 27.71018737384958], [85.97308576945215, 27.712415073606337], [86.00445338974288, 27.739255650161795], [86.00895206375253, 27.744944515354575], [85.98611223760128, 27.794997466760208], [85.97652825032799, 27.832641970139775], [85.97638729200173, 27.839980789408344], [86.01515852133844, 27.909079051868048]]]}}, {"type": "Feature", "properties": {"shapeName": "Nuwakot", "shapeISO": "", "shapeID": "79688334B17077666187877", "shapeGroup": "NPL", "shapeType": "ADM2"}, "geometry": {"type": "Polygon", "coordinates": [[[85.39879294797882, 28.069676097311802], [85.39532120044845, 28.070854702307145], [85.37551240464603, 28.053746367616043], [85.37581924040092, 28.05086049540745], [85.3790505083258, 28.047946811594272], [85.3760727288045, 28.046037195653184], [85.35930496076395, 28.03918387407981], [85.3574478311022, 28.035856208299037], [85.35480522225077, 28.023847440280974], [85.35290385246901, 28.020733187865233], [85.33029024094787, 28.016579000958245], [85.29300860199163, 28.000403325784532], [85.28959013400117, 27.998369212955026], [85.29578798734781, 27.987423732185675], [85.29330030354254, 27.986871149897127], [85.27067986888022, 27.99077841421098], [85.22504910050537, 27.98441617032779], [85.22300897708783, 27.982159570542194], [85.22444994895676, 27.974100020504352], [85.22280937861814, 27.972871695952733], [85.20207478233556, 27.98183221144501], [85.14568784812161, 28.01739427262953], [85.14294427470304, 28.014385416952962], [85.1401664925034, 28.014490887457953], [85.12872011490867, 28.027296706454138], [85.12663379315973, 28.03082812363789], [85.11816921932552, 28.062577890638067], [85.11393801464021, 28.061964388245542], [85.11270968252848, 28.082316234413156], [85.10951790728541, 28.084720456393427], [85.09316338224187, 28.092308678933705], [85.07006534629448, 28.092308678933705], [85.05040946185545, 28.071976833051735], [85.02843914701248, 28.0492464095135], [85.00308104316287, 28.02300501512542], [84.95919477536347, 28.02708293798861], [84.9638143823733, 27.994455232420705], [84.9638143823733, 27.957737253709467], [84.9776732039337, 27.898554237426765], [85.00103597352978, 27.872855885105253], [84.98922222137651, 27.83525382368049], [85.01693986433389, 27.804611323664346], [85.05620652518775, 27.802568182685093], [85.10702220327147, 27.771916461902947], [85.15321827497206, 27.769872706382557], [85.21928236783197, 27.77002566924682], [85.2286723015921, 27.786641293697357], [85.22316574627405, 27.79088518474947], [85.23975609269019, 27.804820466563456], [85.32751035521221, 27.806404583473977], [85.32879616777728, 27.809317986111694], [85.33172053347175, 27.81023933452525], [85.35445338808648, 27.806890947542456], [85.3913416980995, 27.807609607694644], [85.39115318196025, 27.81577985990225], [85.3942299917004, 27.815665368757152], [85.41115073764507, 27.80909750478446], [85.41412568098525, 27.809238653910427], [85.41573098427398, 27.841891443761995], [85.41585015202662, 27.844314992536283], [85.4166300301855, 27.845823072502156], [85.4339160044126, 27.879252898081972], [85.44429419708109, 27.899318320949362], [85.44544941649252, 27.92631472009117], [85.44622880958394, 27.946971743203335], [85.44622880958394, 27.947818602595532], [85.44622880958394, 27.972300893314014], [85.44622880958394, 27.986429163851824], [85.44622880958394, 27.988140462726335], [85.44622880958394, 28.004456507039492], [85.44622880958394, 28.01798470816857], [85.43040890022569, 28.04591266219324], [85.39881813314837, 28.06965738152365], [85.39879294797882, 28.069676097311802]]]}}, {"type": "Feature", "properties": {"shapeName": "Dhading", "shapeISO": "", "shapeID": "79688334B79703604543181", "shapeGroup": "NPL", "shapeType": "ADM2"}, "geometry": {"type": "Polygon", "coordinates": [[[85.09316338224187, 28.092308678933705], [85.11397295461325, 28.129366355679736], [85.14480922280904, 28.153967673565887], [85.17124030957291, 28.194094531471308], [85.1815190655368, 28.2367936707721], [85.16352052573745, 28.264097353889895], [85.14786682596599, 28.28783824166112], [85.13513402248384, 28.307145303367292], [85.11250456120854, 28.30792093501583], [85.10565082407317, 28.334394613726204], [85.09821607754952, 28.363105078692683], [85.05519888638389, 28.351144280210235], [85.01716742995461, 28.329864695642698], [85.01180105444604, 28.321591862288187], [84.98861351800349, 28.265613607370142], [84.98331343491355, 28.257607678459067], [84.95186507035203, 28.24798955750873], [84.93473714507411, 28.20065000706728], [84.94929285170076, 28.163200163262218], [84.9425063103605, 28.156641954911038], [84.91543829960807, 28.138741856325623], [84.90703344756474, 28.120749330180217], [84.89781669905972, 28.118690414556795], [84.8528999053845, 28.12014053072278], [84.83150076420065, 28.113849274850054], [84.82638613935666, 28.10650455457295], [84.81359893055406, 28.037763822717295], [84.80985723814035, 28.029362218156052], [84.75659368050037, 28.013012636395956], [84.72769847445045, 27.98253822112366], [84.7239383354231, 27.973889029327438], [84.73399096584774, 27.835647698554737], [84.66646470971557, 27.833695129413343], [84.62461491831826, 27.845994741303198], [84.61503404369824, 27.83116865675379], [84.61272424064254, 27.79643852941126], [84.58962620469498, 27.76782891310239], [84.62210357837182, 27.750147269113768], [84.68432815064239, 27.747388865424455], [84.7466928475211, 27.737167402685145], [84.7471849572101, 27.704241590657205], [84.74745227092536, 27.68635177640097], [84.74762862959642, 27.703990720356273], [84.7825752306469, 27.684228687849327], [84.7874360676692, 27.685155271327005], [84.78770904731908, 27.69619675710851], [84.820055349818, 27.68543397812101], [84.88179130737245, 27.68816198075831], [84.88071896951021, 27.718483355451838], [84.88560573724874, 27.722809249622742], [84.89740343819898, 27.7271349721604], [84.9022902059375, 27.731460523047303], [84.91386072421614, 27.736271351468645], [84.92594849742125, 27.738608307259824], [84.95191134566642, 27.7188398498144], [84.93293093850775, 27.741710582824965], [84.95501962032012, 27.726998865424207], [84.96068236996172, 27.7241839384925], [84.99303691199646, 27.7349234674507], [84.99155348537454, 27.740271346387374], [84.99498408850093, 27.74283422981574], [85.02244212074561, 27.74566529288893], [85.02496738743248, 27.74552113894411], [85.02673528822794, 27.746107933686176], [85.02914990963066, 27.745282381161697], [85.07388929479595, 27.729986106422587], [85.07404584227172, 27.729645533549785], [85.08186073416482, 27.712646099982805], [85.0857019496147, 27.707935138239634], [85.11566738895687, 27.692699788915263], [85.12215447907136, 27.69260939191537], [85.1288872873817, 27.693989751108518], [85.12872003972114, 27.699182236602212], [85.12560216216377, 27.71110404577138], [85.15708958662537, 27.70148223725596], [85.15879024391869, 27.70012022009399], [85.16031203291152, 27.70043221612508], [85.17460787175048, 27.727325864123657], [85.1998731606945, 27.73583725008109], [85.21928236783197, 27.77002566924682], [85.15321827497206, 27.769872706382557], [85.10702220327147, 27.771916461902947], [85.05620652518775, 27.802568182685093], [85.01693986433389, 27.804611323664346], [84.98922222137651, 27.83525382368049], [85.00103597352978, 27.872855885105253], [84.9776732039337, 27.898554237426765], [84.9638143823733, 27.957737253709467], [84.9638143823733, 27.994455232420705], [84.95919477536347, 28.02708293798861], [85.00308104316287, 28.02300501512542], [85.02843914701248, 28.0492464095135], [85.05040946185545, 28.071976833051735], [85.07006534629448, 28.092308678933705], [85.09316338224187, 28.092308678933705]]]}}, {"type": "Feature", "properties": {"shapeName": "Kathmandu", "shapeISO": "", "shapeID": "79688334B75108943206003", "shapeGroup": "NPL", "shapeType": "ADM2"}, "geometry": {"type": "Polygon", "coordinates": [[[85.41412568098525, 27.809238653910427], [85.41115073764507, 27.80909750478446], [85.3942299917004, 27.815665368757152], [85.39115318196025, 27.81577985990225], [85.3913416980995, 27.807609607694644], [85.35445338808648, 27.806890947542456], [85.33172053347175, 27.81023933452525], [85.32879616777728, 27.809317986111694], [85.32751035521221, 27.806404583473977], [85.23975609269019, 27.804820466563456], [85.22316574627405, 27.79088518474947], [85.2286723015921, 27.786641293697357], [85.21928236783197, 27.77002566924682], [85.1998731606945, 27.73583725008109], [85.17460787175048, 27.727325864123657], [85.16031203291152, 27.70043221612508], [85.16184864698177, 27.69767081569222], [85.17406749014219, 27.67571293335044], [85.175116414321, 27.673827731613358], [85.18574553051218, 27.646929405928624], [85.1891361762788, 27.6416182321733], [85.21308280220805, 27.619563399568072], [85.2150778131645, 27.614139171857175], [85.21135568301395, 27.589864726337055], [85.21140197622589, 27.58378761644832], [85.23846073928826, 27.58187815278859], [85.26406421506044, 27.606967543356177], [85.2634834444209, 27.644768957343842], [85.27538708768151, 27.674674293294345], [85.29803283356159, 27.685954676428764], [85.32710413434586, 27.656037408182044], [85.36206079885483, 27.685268414522795], [85.392861894715, 27.71101802314257], [85.42683051398421, 27.71227103889771], [85.46787592859857, 27.706005814197226], [85.47056273660468, 27.729917939020027], [85.50184454738019, 27.74985482992639], [85.54232728853925, 27.75727303253675], [85.51413404394782, 27.776350141723412], [85.4444418297208, 27.790578861343533], [85.41406317207611, 27.80796699008215], [85.41412568098525, 27.809238653910427]]]}}, {"type": "Feature", "properties": {"shapeName": "Makawanpur", "shapeISO": "", "shapeID": "79688334B4770070965791", "shapeGroup": "NPL", "shapeType": "ADM2"}, "geometry": {"type": "Polygon", "coordinates": [[[84.6919833062093, 27.60609269028282], [84.6917619710685, 27.605826412116926], [84.658931845535, 27.613427699063436], [84.66242347457387, 27.60916786039604], [84.68686202213087, 27.597718231246915], [84.65957821598283, 27.606387014935308], [84.65547637892917, 27.60549655944868], [84.68520950206909, 27.590748651336924], [84.65503349576272, 27.603412847514846], [84.65193537581177, 27.601541593517936], [84.64856544571711, 27.596654085194928], [84.65046185817636, 27.59154182985037], [84.67584670278302, 27.579274292423406], [84.64992495856433, 27.58778677757539], [84.64385409146394, 27.58825481827597], [84.64174179068448, 27.58294699495343], [84.64873932308245, 27.559240632909336], [84.64793694701359, 27.5538761271755], [84.6245447239956, 27.531325669437535], [84.65118576274023, 27.536168816206327], [84.6550566114733, 27.5335008320613], [84.65505917965648, 27.53349001469325], [84.65714200815677, 27.5219020848362], [84.62437717947563, 27.51258913685416], [84.62437717947563, 27.48806891993928], [84.62322959254737, 27.482101376953153], [84.6145807369752, 27.45880584410139], [84.63768716164066, 27.45335393665764], [84.66529295298817, 27.446840414054414], [84.69103247399367, 27.440767233620818], [84.6939427295452, 27.44008056555623], [84.74826762216767, 27.449157043835484], [84.78657872084739, 27.43516559666608], [84.8128861355381, 27.432381421138913], [84.81400551314744, 27.432262954775638], [84.84162237379485, 27.431181378057886], [84.8467178555155, 27.427896080348383], [84.85493378038927, 27.418029658392527], [84.85990883895505, 27.414017834581102], [84.88440762675589, 27.402755373319888], [84.88453113155522, 27.402668018496083], [84.90061878222662, 27.39127992216504], [84.9040776679295, 27.390388738115067], [84.90679653091367, 27.389688221378265], [84.93980111719043, 27.381184569221944], [84.96621992260731, 27.38841036651968], [84.97261884803459, 27.38875414682482], [85.02010591547798, 27.36378331234488], [85.05246069308123, 27.355793064158433], [85.04886522256027, 27.35055096071784], [85.05074155868232, 27.346488974963336], [85.07434955380023, 27.333713606584695], [85.10557302759264, 27.320592004580647], [85.10619740215446, 27.316476942809857], [85.12654411315718, 27.305461168448275], [85.21380974169165, 27.25821527827327], [85.25672756826407, 27.236611341993353], [85.35348063300808, 27.227393943983714], [85.42950089865974, 27.18436933579818], [85.4675110313251, 27.156701892409444], [85.49169929756664, 27.224321308691913], [85.45717213188243, 27.273139519601386], [85.42949839629205, 27.3122521416048], [85.39835644464188, 27.356250077535947], [85.45194879504947, 27.377954034910942], [85.47442196416284, 27.38705400567403], [85.41843393473118, 27.433312349812127], [85.33620330011445, 27.42693309439113], [85.27746036791626, 27.445333971949196], [85.22562836890933, 27.482126519830217], [85.23128758083647, 27.526129209784585], [85.23846073928826, 27.58187815278859], [85.21140197622589, 27.58378761644832], [85.21135568301395, 27.589864726337055], [85.2150778131645, 27.614139171857175], [85.21308280220805, 27.619563399568072], [85.1891361762788, 27.6416182321733], [85.18574553051218, 27.646929405928624], [85.17406749014219, 27.67571293335044], [85.16184864698177, 27.69767081569222], [85.15879024391869, 27.70012022009399], [85.15708958662537, 27.70148223725596], [85.12560216216377, 27.71110404577138], [85.12872003972114, 27.699182236602212], [85.1288872873817, 27.693989751108518], [85.12215447907136, 27.69260939191537], [85.11566738895687, 27.692699788915263], [85.0857019496147, 27.707935138239634], [85.08186073416482, 27.712646099982805], [85.07404584227172, 27.729645533549785], [85.02914990963066, 27.745282381161697], [85.02496738743248, 27.74552113894411], [85.02244212074561, 27.74566529288893], [84.99498408850093, 27.74283422981574], [84.99155348537454, 27.740271346387374], [84.99303691199646, 27.7349234674507], [84.96068236996172, 27.7241839384925], [84.95501962032012, 27.726998865424207], [84.93293093850775, 27.741710582824965], [84.95191134566642, 27.7188398498144], [84.92594849742125, 27.738608307259824], [84.91386072421614, 27.736271351468645], [84.9022902059375, 27.731460523047303], [84.89740343819898, 27.7271349721604], [84.88560573724874, 27.722809249622742], [84.88071896951021, 27.718483355451838], [84.88179130737245, 27.68816198075831], [84.820055349818, 27.68543397812101], [84.78770904731908, 27.69619675710851], [84.7874360676692, 27.685155271327005], [84.7825752306469, 27.684228687849327], [84.74762862959642, 27.703990720356273], [84.74745227092536, 27.68635177640097], [84.74620719594793, 27.680729278072477], [84.71123433083011, 27.651126332270962], [84.70523512525958, 27.648758579161044], [84.69168549203988, 27.64708421886587], [84.6938218732887, 27.61490632237439], [84.69079671037485, 27.61840806633313], [84.66320068029796, 27.61696972790736], [84.6919833062093, 27.60609269028282]], [[84.69412039884085, 27.610409972934733], [84.69422776151367, 27.60879289161525], [84.69389120056343, 27.608387990557674], [84.69412039884085, 27.610409972934733]], [[84.69389120056343, 27.608387990557674], [84.69356333701091, 27.605495592070326], [84.6919833062093, 27.60609269028282], [84.69389120056343, 27.608387990557674]]]}}, {"type": "Feature", "properties": {"shapeName": "Lalitpur", "shapeISO": "", "shapeID": "79688334B56442296246471", "shapeGroup": "NPL", "shapeType": "ADM2"}, "geometry": {"type": "Polygon", "coordinates": [[[85.23846073928826, 27.58187815278859], [85.23128758083647, 27.526129209784585], [85.22562836890933, 27.482126519830217], [85.27746036791626, 27.445333971949196], [85.33620330011445, 27.42693309439113], [85.41843393473118, 27.433312349812127], [85.40349373817361, 27.469777729098382], [85.39374462507067, 27.493566436697904], [85.41692300010561, 27.53349288003926], [85.39834118406185, 27.558856249170617], [85.37354240461787, 27.59269637622583], [85.36141932454137, 27.60923559087894], [85.32710413434586, 27.656037408182044], [85.29803283356159, 27.685954676428764], [85.27538708768151, 27.674674293294345], [85.2634834444209, 27.644768957343842], [85.26406421506044, 27.606967543356177], [85.23846073928826, 27.58187815278859]]]}}, {"type": "Feature", "properties": {"shapeName": "Bhaktapur", "shapeISO": "", "shapeID": "79688334B89468852374463", "shapeGroup": "NPL", "shapeType": "ADM2"}, "geometry": {"type": "Polygon", "coordinates": [[[85.32710413434586, 27.656037408182044], [85.36141932454137, 27.60923559087894], [85.38040559265602, 27.62650059123331], [85.42134599734072, 27.63150040729721], [85.4545184766045, 27.64129634082593], [85.46042447825346, 27.66991237974287], [85.46787592859857, 27.706005814197226], [85.42683051398421, 27.71227103889771], [85.392861894715, 27.71101802314257], [85.36206079885483, 27.685268414522795], [85.32710413434586, 27.656037408182044]]]}}, {"type": "Feature", "properties": {"shapeName": "Kabherepalanchok", "shapeISO": "", "shapeID": "79688334B6633706619717", "shapeGroup": "NPL", "shapeType": "ADM2"}, "geometry": {"type": "Polygon", "coordinates": [[[85.54232728853925, 27.75727303253675], [85.50184454738019, 27.74985482992639], [85.47056273660468, 27.729917939020027], [85.46787592859857, 27.706005814197226], [85.46042447825346, 27.66991237974287], [85.4545184766045, 27.64129634082593], [85.42134599734072, 27.63150040729721], [85.38040559265602, 27.62650059123331], [85.36141932454137, 27.60923559087894], [85.37354240461787, 27.59269637622583], [85.39834118406185, 27.558856249170617], [85.41692300010561, 27.53349288003926], [85.39374462507067, 27.493566436697904], [85.40349373817361, 27.469777729098382], [85.41843393473118, 27.433312349812127], [85.47442196416284, 27.38705400567403], [85.45194879504947, 27.377954034910942], [85.51422893983732, 27.372571268885167], [85.56730490690461, 27.35293063166347], [85.61153487935167, 27.349002085934785], [85.65576485170351, 27.345073401108436], [85.6783329988807, 27.376015661113456], [85.70249451389395, 27.40913293419345], [85.73537880261745, 27.41184208607831], [85.77518577791801, 27.43343508839979], [85.80614675859772, 27.4412860423987], [85.81296128940988, 27.471473141433023], [85.78403177242188, 27.498188745909772], [85.7995996912801, 27.52557695253097], [85.79066626827466, 27.564864816499266], [85.837107739244, 27.566825264909482], [85.84204484770612, 27.600214868315902], [85.82685551897924, 27.630794354966497], [85.80362478065831, 27.65612234728718], [85.75537632472663, 27.67036676522804], [85.72499766716913, 27.66720149942654], [85.71070182831863, 27.64504207216629], [85.68568411001365, 27.63870998226679], [85.65709243233596, 27.67353193972707], [85.63922263406602, 27.698850030681626], [85.59276115780187, 27.72099854384703], [85.54451270159251, 27.75579426114882], [85.54232728853925, 27.75727303253675]]]}}]}